ONEWEB-0136             
1 47282U 20100AA  24148.48553687  .00000027  00000+0  39718-4 0  9991
2 47282  87.8928 140.1034 0002593  84.4989 275.6435 13.12445221166191
ONEWEB-0137             
1 47283U 20100AB  24148.51889625  .00000230  00000+0  60451-3 0  9993
2 47283  87.8923 140.1225 0002006  83.0842 277.0515 13.12441649166107
ONEWEB-0138             
1 47284U 20100AC  24148.72696692 -.00000176  00000+0 -52510-3 0  9995
2 47284  87.8922 140.0935 0002108  69.4388 290.6967 13.12446499166212
ONEWEB-0139             
1 47285U 20100AD  24148.46964373 -.00000398  00000+0 -11431-2 0  9993
2 47285  87.8930 140.1166 0002084  88.3164 271.8203 13.12440689166257
ONEWEB-0140             
1 47286U 20100AE  24148.49187696  .00000269  00000+0  71271-3 0  9996
2 47286  87.8925 140.1156 0002206  86.2686 273.8695 13.12446792166228
ONEWEB-0141             
1 47287U 20100AF  24148.52318058 -.00000064  00000+0 -21919-3 0  9998
2 47287  87.8923 140.1142 0001971  84.0634 276.0718 13.10828808166219
ONEWEB-0142             
1 47288U 20100AG  24148.50538275  .00000161  00000+0  41270-3 0  9990
2 47288  87.8926 140.1050 0002102  80.7674 279.3692 13.12441277166204
ONEWEB-0143             
1 47289U 20100AH  24148.53476730 -.00000344  00000+0 -99086-3 0  9994
2 47289  87.8927 140.1193 0001980  88.5470 271.5885 13.12439969166187
